{
"type": "FeatureCollection",
"name": "candidate_trajectories",
"crs": { "type": "name", "properties": { "name": "urn:ogc:def:crs:OGC:1.3:CRS84" } },
"features": [
{ "type": "Feature", "properties": { "mmsi": 367123450, "vessel_name": "GULF_EXPLORER_TANKER" }, "geometry": { "type": "LineString", "coordinates": [ [ -89.45, 28.4 ], [ -89.447395833333331, 28.403645833333329 ], [ -89.444791666666674, 28.407291666666666 ], [ -89.4421875, 28.4109375 ], [ -89.439583333333331, 28.414583333333333 ], [ -89.436979166666674, 28.418229166666663 ], [ -89.434375, 28.421875 ], [ -89.431770833333331, 28.425520833333334 ], [ -89.429166666666674, 28.429166666666667 ], [ -89.4265625, 28.4328125 ], [ -89.423958333333331, 28.436458333333331 ], [ -89.421354166666674, 28.440104166666664 ], [ -89.41875, 28.44375 ], [ -89.416145833333331, 28.447395833333331 ], [ -89.413541666666674, 28.451041666666665 ], [ -89.4109375, 28.4546875 ], [ -89.408333333333331, 28.458333333333329 ], [ -89.405729166666674, 28.461979166666666 ], [ -89.403125, 28.465625 ], [ -89.400520833333331, 28.469270833333333 ], [ -89.397916666666674, 28.472916666666663 ], [ -89.3953125, 28.4765625 ], [ -89.392708333333331, 28.480208333333334 ], [ -89.390104166666674, 28.483854166666667 ], [ -89.3875, 28.4875 ], [ -89.384895833333331, 28.491145833333331 ], [ -89.382291666666674, 28.494791666666664 ], [ -89.3796875, 28.4984375 ], [ -89.377083333333331, 28.502083333333331 ], [ -89.374479166666674, 28.505729166666665 ], [ -89.371875, 28.509375 ], [ -89.369270833333331, 28.513020833333329 ], [ -89.366666666666674, 28.516666666666666 ], [ -89.3640625, 28.5203125 ], [ -89.361458333333331, 28.523958333333333 ], [ -89.358854166666674, 28.527604166666663 ], [ -89.35625, 28.53125 ], [ -89.353645833333331, 28.534895833333334 ], [ -89.351041666666674, 28.538541666666667 ], [ -89.3484375, 28.5421875 ], [ -89.345833333333331, 28.545833333333331 ], [ -89.343229166666674, 28.549479166666664 ], [ -89.340625, 28.553125 ], [ -89.338020833333331, 28.556770833333331 ], [ -89.335416666666674, 28.560416666666665 ], [ -89.3328125, 28.5640625 ], [ -89.330208333333331, 28.567708333333329 ], [ -89.327604166666674, 28.571354166666666 ], [ -89.325, 28.575 ], [ -89.322395833333331, 28.578645833333333 ], [ -89.319791666666674, 28.582291666666663 ], [ -89.3171875, 28.5859375 ], [ -89.314583333333331, 28.589583333333334 ], [ -89.311979166666674, 28.593229166666667 ], [ -89.309375, 28.596875 ], [ -89.306770833333331, 28.600520833333331 ], [ -89.304166666666674, 28.604166666666664 ], [ -89.3015625, 28.6078125 ], [ -89.298958333333331, 28.611458333333331 ], [ -89.296354166666674, 28.615104166666665 ], [ -89.29375, 28.61875 ], [ -89.291145833333331, 28.622395833333329 ], [ -89.288541666666674, 28.626041666666666 ], [ -89.2859375, 28.6296875 ], [ -89.283333333333331, 28.633333333333333 ], [ -89.280729166666674, 28.636979166666663 ], [ -89.278125, 28.640625 ], [ -89.275520833333331, 28.644270833333334 ], [ -89.272916666666674, 28.647916666666667 ], [ -89.2703125, 28.6515625 ], [ -89.267708333333331, 28.655208333333331 ], [ -89.265104166666674, 28.658854166666668 ], [ -89.2625, 28.6625 ], [ -89.259895833333331, 28.666145833333331 ], [ -89.257291666666674, 28.669791666666665 ], [ -89.2546875, 28.6734375 ], [ -89.252083333333331, 28.677083333333329 ], [ -89.249479166666674, 28.680729166666666 ], [ -89.246875, 28.684375 ], [ -89.244270833333331, 28.688020833333333 ], [ -89.241666666666674, 28.691666666666663 ], [ -89.2390625, 28.6953125 ], [ -89.236458333333331, 28.698958333333334 ], [ -89.233854166666674, 28.702604166666667 ], [ -89.23125, 28.70625 ], [ -89.228645833333331, 28.709895833333331 ], [ -89.226041666666674, 28.713541666666668 ], [ -89.2234375, 28.7171875 ], [ -89.220833333333331, 28.720833333333331 ], [ -89.218229166666674, 28.724479166666665 ], [ -89.215625, 28.728125 ], [ -89.213020833333331, 28.731770833333329 ], [ -89.210416666666674, 28.735416666666666 ], [ -89.2078125, 28.7390625 ], [ -89.205208333333331, 28.742708333333333 ], [ -89.202604166666674, 28.746354166666663 ], [ -89.2, 28.75 ] ] } },
{ "type": "Feature", "properties": { "mmsi": 368987650, "vessel_name": "DELTA_CARRIER_CARGO" }, "geometry": { "type": "LineString", "coordinates": [ [ -89.6, 28.3 ], [ -89.594791666666666, 28.302083333333336 ], [ -89.589583333333323, 28.304166666666667 ], [ -89.584375, 28.30625 ], [ -89.579166666666666, 28.308333333333334 ], [ -89.573958333333323, 28.310416666666669 ], [ -89.56875, 28.3125 ], [ -89.563541666666666, 28.314583333333331 ], [ -89.558333333333323, 28.316666666666663 ], [ -89.553125, 28.31875 ], [ -89.547916666666666, 28.320833333333333 ], [ -89.542708333333323, 28.322916666666668 ], [ -89.5375, 28.325 ], [ -89.532291666666666, 28.327083333333331 ], [ -89.527083333333323, 28.329166666666666 ], [ -89.521875, 28.33125 ], [ -89.516666666666666, 28.333333333333336 ], [ -89.511458333333323, 28.335416666666667 ], [ -89.50625, 28.3375 ], [ -89.501041666666666, 28.339583333333334 ], [ -89.495833333333323, 28.341666666666669 ], [ -89.490625, 28.34375 ], [ -89.485416666666666, 28.345833333333331 ], [ -89.480208333333323, 28.347916666666663 ], [ -89.475, 28.35 ], [ -89.469791666666666, 28.352083333333333 ], [ -89.464583333333323, 28.354166666666668 ], [ -89.459375, 28.35625 ], [ -89.454166666666666, 28.358333333333331 ], [ -89.448958333333323, 28.360416666666666 ], [ -89.44375, 28.3625 ], [ -89.438541666666666, 28.364583333333329 ], [ -89.433333333333323, 28.366666666666667 ], [ -89.428125, 28.36875 ], [ -89.422916666666666, 28.370833333333334 ], [ -89.417708333333323, 28.372916666666669 ], [ -89.4125, 28.375 ], [ -89.407291666666666, 28.377083333333331 ], [ -89.402083333333323, 28.379166666666663 ], [ -89.396875, 28.38125 ], [ -89.391666666666666, 28.383333333333333 ], [ -89.386458333333323, 28.385416666666668 ], [ -89.38125, 28.3875 ], [ -89.376041666666666, 28.389583333333331 ], [ -89.370833333333323, 28.391666666666666 ], [ -89.365625, 28.39375 ], [ -89.360416666666666, 28.395833333333329 ], [ -89.355208333333323, 28.397916666666667 ], [ -89.35, 28.4 ], [ -89.344791666666666, 28.402083333333334 ], [ -89.339583333333323, 28.404166666666669 ], [ -89.334375, 28.40625 ], [ -89.329166666666666, 28.408333333333331 ], [ -89.323958333333323, 28.410416666666663 ], [ -89.31875, 28.4125 ], [ -89.313541666666666, 28.414583333333333 ], [ -89.308333333333323, 28.416666666666668 ], [ -89.303125, 28.41875 ], [ -89.297916666666666, 28.420833333333331 ], [ -89.292708333333323, 28.422916666666666 ], [ -89.2875, 28.425 ], [ -89.282291666666666, 28.427083333333329 ], [ -89.277083333333323, 28.429166666666667 ], [ -89.271875, 28.43125 ], [ -89.266666666666666, 28.433333333333334 ], [ -89.261458333333323, 28.435416666666669 ], [ -89.25625, 28.4375 ], [ -89.251041666666666, 28.439583333333331 ], [ -89.245833333333323, 28.441666666666663 ], [ -89.240625, 28.44375 ], [ -89.235416666666666, 28.445833333333333 ], [ -89.230208333333323, 28.447916666666668 ], [ -89.225, 28.45 ], [ -89.219791666666666, 28.452083333333331 ], [ -89.214583333333323, 28.454166666666666 ], [ -89.209375, 28.45625 ], [ -89.204166666666666, 28.458333333333329 ], [ -89.198958333333323, 28.460416666666667 ], [ -89.19375, 28.4625 ], [ -89.188541666666666, 28.464583333333334 ], [ -89.183333333333323, 28.466666666666669 ], [ -89.178125, 28.46875 ], [ -89.172916666666666, 28.470833333333331 ], [ -89.167708333333323, 28.472916666666663 ], [ -89.1625, 28.475 ], [ -89.157291666666666, 28.477083333333333 ], [ -89.152083333333323, 28.479166666666668 ], [ -89.146875, 28.48125 ], [ -89.141666666666666, 28.483333333333331 ], [ -89.136458333333323, 28.485416666666666 ], [ -89.13125, 28.4875 ], [ -89.126041666666666, 28.489583333333329 ], [ -89.120833333333323, 28.491666666666667 ], [ -89.115625, 28.49375 ], [ -89.110416666666666, 28.495833333333334 ], [ -89.105208333333323, 28.497916666666665 ], [ -89.1, 28.5 ] ] } }
]
}
