{
"type": "FeatureCollection",
"name": "probable_origin_zone",
"crs": { "type": "name", "properties": { "name": "urn:ogc:def:crs:OGC:1.3:CRS84" } },
"features": [
{ "type": "Feature", "properties": { "case_id": "CASE_001", "probable_t0": "2020-05-11T14:30:00" }, "geometry": { "type": "Polygon", "coordinates": [ [ [ -89.229171145949437, 28.409083753658436 ], [ -89.230815059995962, 28.408120410101265 ], [ -89.23254318652468, 28.407317874804718 ], [ -89.234339840695455, 28.406683431748078 ], [ -89.236188715696841, 28.406222839270086 ], [ -89.238073030750101, 28.405940277805023 ], [ -89.239975683415167, 28.405838311940226 ], [ -89.241879404815947, 28.405917867139355 ], [ -89.243766916376259, 28.406178221342667 ], [ -89.245621086643851, 28.406617011520616 ], [ -89.247425086779074, 28.407230255121174 ], [ -89.249162543296933, 28.408012386216331 ], [ -89.250817686676356, 28.408956306019633 ], [ -89.252375494487595, 28.410053447316244 ], [ -89.295824856040937, 28.443861743239275 ], [ -89.297252749716691, 28.445084764846392 ], [ -89.298559493256988, 28.44643646138061 ], [ -89.29973353941935, 28.447904888365308 ], [ -89.325329433916721, 28.483200297011471 ], [ -89.325956342722108, 28.484117318477008 ], [ -89.470833679514115, 28.709211325097346 ], [ -89.47180092081858, 28.710887038769972 ], [ -89.472601714549697, 28.712648373903868 ], [ -89.473228566134878, 28.714478846286571 ], [ -89.473675608913936, 28.716361324654937 ], [ -89.473938659044748, 28.718278191025441 ], [ -89.474015254659506, 28.720211505579641 ], [ -89.473904678905214, 28.722143174561701 ], [ -89.473607966652608, 28.724055119616569 ], [ -89.473127894810958, 28.725929446984065 ], [ -89.472468956339071, 28.7277486149653 ], [ -89.471637318196073, 28.729495598094239 ], [ -89.470640763625241, 28.73115404647783 ], [ -89.469488619311178, 28.732708438813521 ], [ -89.467938427661494, 28.734601118712877 ], [ -89.466574495630994, 28.736103888875661 ], [ -89.465065292771868, 28.737460699649503 ], [ -89.463426358699834, 28.738657580534756 ], [ -89.46167456881733, 28.73968220776138 ], [ -89.459827960554776, 28.740524031181497 ], [ -89.45790554764686, 28.741174382899764 ], [ -89.455927124356236, 28.741626566522978 ], [ -89.453913061660501, 28.741875926109962 ], [ -89.451884097500937, 28.741919894111817 ], [ -89.449861123252816, 28.741758017808841 ], [ -89.447864968615889, 28.741391963972031 ], [ -89.445916187139815, 28.740825501701018 ], [ -89.401647953490581, 28.725482370352747 ], [ -89.400025605635463, 28.724839497720616 ], [ -89.398465473188466, 28.724057650848145 ], [ -89.396979433819311, 28.723142782126711 ], [ -89.329393223341583, 28.677351395726856 ], [ -89.327942037543309, 28.676269221122261 ], [ -89.326594646763056, 28.675060262818086 ], [ -89.325362089641601, 28.673734425332469 ], [ -89.324254464032862, 28.672302570728537 ], [ -89.323280844276212, 28.670776429625825 ], [ -89.276793270396396, 28.590070417571869 ], [ -89.276225359236605, 28.589012241245559 ], [ -89.2049272150212, 28.44601945827009 ], [ -89.204146747727123, 28.44424331085375 ], [ -89.203542041133829, 28.442399901301396 ], [ -89.203118785271585, 28.440506575308131 ], [ -89.202880962796939, 28.438581148261409 ], [ -89.202830811517643, 28.436641737605854 ], [ -89.20296880333575, 28.434706592365874 ], [ -89.203293639807299, 28.432793921430129 ], [ -89.203802264360107, 28.430921722213707 ], [ -89.204489891054763, 28.429107611310123 ], [ -89.205350049618303, 28.427368658726735 ], [ -89.206374646326694, 28.42572122726326 ], [ -89.20755404016333, 28.424180818544841 ], [ -89.208877133536873, 28.42276192715838 ], [ -89.210331476704837, 28.421477904264691 ], [ -89.211903384920291, 28.420340831969774 ], [ -89.229171145949437, 28.409083753658436 ] ] ] } }
]
}
