{
"type": "FeatureCollection",
"name": "spill_geometry",
"crs": { "type": "name", "properties": { "name": "urn:ogc:def:crs:OGC:1.3:CRS84" } },
"features": [
{ "type": "Feature", "properties": { "case_id": "CASE_001", "area_km2": 162.71798928525763 }, "geometry": { "type": "Polygon", "coordinates": [ [ [ -89.341, 28.891 ], [ -89.341, 28.89 ], [ -89.343, 28.89 ], [ -89.343, 28.887 ], [ -89.341, 28.887 ], [ -89.341, 28.886 ], [ -89.34, 28.886 ], [ -89.34, 28.883 ], [ -89.342, 28.883 ], [ -89.342, 28.882 ], [ -89.344, 28.882 ], [ -89.344, 28.881 ], [ -89.346, 28.881 ], [ -89.346, 28.882 ], [ -89.348, 28.882 ], [ -89.348, 28.883 ], [ -89.349, 28.883 ], [ -89.349, 28.882 ], [ -89.351, 28.882 ], [ -89.351, 28.879 ], [ -89.349, 28.879 ], [ -89.349, 28.878 ], [ -89.348, 28.878 ], [ -89.348, 28.875 ], [ -89.35, 28.875 ], [ -89.35, 28.871 ], [ -89.349, 28.871 ], [ -89.349, 28.87 ], [ -89.348, 28.87 ], [ -89.348, 28.869 ], [ -89.347, 28.869 ], [ -89.347, 28.868 ], [ -89.346, 28.868 ], [ -89.346, 28.867 ], [ -89.345, 28.867 ], [ -89.345, 28.866 ], [ -89.344, 28.866 ], [ -89.344, 28.863 ], [ -89.343, 28.863 ], [ -89.343, 28.856 ], [ -89.342, 28.856 ], [ -89.342, 28.855 ], [ -89.341, 28.855 ], [ -89.341, 28.854 ], [ -89.339, 28.854 ], [ -89.339, 28.853 ], [ -89.337, 28.853 ], [ -89.337, 28.852 ], [ -89.335, 28.852 ], [ -89.335, 28.844 ], [ -89.333, 28.844 ], [ -89.333, 28.843 ], [ -89.33, 28.843 ], [ -89.33, 28.844 ], [ -89.327, 28.844 ], [ -89.327, 28.843 ], [ -89.325, 28.843 ], [ -89.325, 28.842 ], [ -89.324, 28.842 ], [ -89.324, 28.841 ], [ -89.323, 28.841 ], [ -89.323, 28.837 ], [ -89.321, 28.837 ], [ -89.321, 28.836 ], [ -89.32, 28.836 ], [ -89.32, 28.837 ], [ -89.319, 28.837 ], [ -89.319, 28.836 ], [ -89.317, 28.836 ], [ -89.317, 28.835 ], [ -89.316, 28.835 ], [ -89.316, 28.834 ], [ -89.314, 28.834 ], [ -89.314, 28.83 ], [ -89.313, 28.83 ], [ -89.313, 28.829 ], [ -89.312, 28.829 ], [ -89.312, 28.828 ], [ -89.31, 28.828 ], [ -89.31, 28.827 ], [ -89.309, 28.827 ], [ -89.309, 28.828 ], [ -89.307, 28.828 ], [ -89.307, 28.827 ], [ -89.305, 28.827 ], [ -89.305, 28.826 ], [ -89.304, 28.826 ], [ -89.304, 28.825 ], [ -89.303, 28.825 ], [ -89.303, 28.823 ], [ -89.302, 28.823 ], [ -89.302, 28.822 ], [ -89.3, 28.822 ], [ -89.3, 28.821 ], [ -89.298, 28.821 ], [ -89.298, 28.82 ], [ -89.297, 28.82 ], [ -89.297, 28.818 ], [ -89.296, 28.818 ], [ -89.296, 28.816 ], [ -89.295, 28.816 ], [ -89.295, 28.812 ], [ -89.293, 28.812 ], [ -89.293, 28.811 ], [ -89.29, 28.811 ], [ -89.29, 28.81 ], [ -89.288, 28.81 ], [ -89.288, 28.807 ], [ -89.286, 28.807 ], [ -89.286, 28.806 ], [ -89.284, 28.806 ], [ -89.284, 28.805 ], [ -89.282, 28.805 ], [ -89.282, 28.804 ], [ -89.28, 28.804 ], [ -89.28, 28.803 ], [ -89.278, 28.803 ], [ -89.278, 28.802 ], [ -89.277, 28.802 ], [ -89.277, 28.798 ], [ -89.278, 28.798 ], [ -89.278, 28.795 ], [ -89.276, 28.795 ], [ -89.276, 28.794 ], [ -89.273, 28.794 ], [ -89.273, 28.793 ], [ -89.271, 28.793 ], [ -89.271, 28.792 ], [ -89.27, 28.792 ], [ -89.27, 28.789 ], [ -89.269, 28.789 ], [ -89.269, 28.788 ], [ -89.268, 28.788 ], [ -89.268, 28.786 ], [ -89.267, 28.786 ], [ -89.267, 28.783 ], [ -89.266, 28.783 ], [ -89.266, 28.78 ], [ -89.264, 28.78 ], [ -89.264, 28.779 ], [ -89.262, 28.779 ], [ -89.262, 28.778 ], [ -89.261, 28.778 ], [ -89.261, 28.776 ], [ -89.259, 28.776 ], [ -89.259, 28.775 ], [ -89.257, 28.775 ], [ -89.257, 28.774 ], [ -89.255, 28.774 ], [ -89.255, 28.771 ], [ -89.254, 28.771 ], [ -89.254, 28.77 ], [ -89.253, 28.77 ], [ -89.253, 28.769 ], [ -89.252, 28.769 ], [ -89.252, 28.768 ], [ -89.251, 28.768 ], [ -89.251, 28.767 ], [ -89.25, 28.767 ], [ -89.25, 28.766 ], [ -89.249, 28.766 ], [ -89.249, 28.765 ], [ -89.248, 28.765 ], [ -89.248, 28.764 ], [ -89.247, 28.764 ], [ -89.247, 28.762 ], [ -89.246, 28.762 ], [ -89.246, 28.759 ], [ -89.245, 28.759 ], [ -89.245, 28.757 ], [ -89.244, 28.757 ], [ -89.244, 28.756 ], [ -89.242, 28.756 ], [ -89.242, 28.755 ], [ -89.24, 28.755 ], [ -89.24, 28.753 ], [ -89.239, 28.753 ], [ -89.239, 28.752 ], [ -89.238, 28.752 ], [ -89.238, 28.746 ], [ -89.237, 28.746 ], [ -89.237, 28.745 ], [ -89.235, 28.745 ], [ -89.235, 28.744 ], [ -89.234, 28.744 ], [ -89.234, 28.739 ], [ -89.233, 28.739 ], [ -89.233, 28.738 ], [ -89.231, 28.738 ], [ -89.231, 28.737 ], [ -89.229, 28.737 ], [ -89.229, 28.732 ], [ -89.228, 28.732 ], [ -89.228, 28.73 ], [ -89.227, 28.73 ], [ -89.227, 28.729 ], [ -89.226, 28.729 ], [ -89.226, 28.727 ], [ -89.225, 28.727 ], [ -89.225, 28.724 ], [ -89.226, 28.724 ], [ -89.226, 28.723 ], [ -89.227, 28.723 ], [ -89.227, 28.72 ], [ -89.225, 28.72 ], [ -89.225, 28.719 ], [ -89.223, 28.719 ], [ -89.223, 28.72 ], [ -89.221, 28.72 ], [ -89.221, 28.719 ], [ -89.219, 28.719 ], [ -89.219, 28.716 ], [ -89.22, 28.716 ], [ -89.22, 28.715 ], [ -89.221, 28.715 ], [ -89.221, 28.709 ], [ -89.219, 28.709 ], [ -89.219, 28.708 ], [ -89.217, 28.708 ], [ -89.217, 28.705 ], [ -89.216, 28.705 ], [ -89.216, 28.703 ], [ -89.215, 28.703 ], [ -89.215, 28.701 ], [ -89.214, 28.701 ], [ -89.214, 28.692 ], [ -89.212, 28.692 ], [ -89.212, 28.691 ], [ -89.21, 28.691 ], [ -89.21, 28.69 ], [ -89.209, 28.69 ], [ -89.209, 28.686 ], [ -89.208, 28.686 ], [ -89.208, 28.685 ], [ -89.207, 28.685 ], [ -89.207, 28.678 ], [ -89.206, 28.678 ], [ -89.206, 28.672 ], [ -89.204, 28.672 ], [ -89.204, 28.671 ], [ -89.202, 28.671 ], [ -89.202, 28.67 ], [ -89.201, 28.67 ], [ -89.201, 28.667 ], [ -89.202, 28.667 ], [ -89.202, 28.666 ], [ -89.203, 28.666 ], [ -89.203, 28.659 ], [ -89.201, 28.659 ], [ -89.201, 28.658 ], [ -89.2, 28.658 ], [ -89.2, 28.659 ], [ -89.199, 28.659 ], [ -89.199, 28.658 ], [ -89.197, 28.658 ], [ -89.197, 28.657 ], [ -89.196, 28.657 ], [ -89.196, 28.654 ], [ -89.198, 28.654 ], [ -89.198, 28.653 ], [ -89.2, 28.653 ], [ -89.2, 28.654 ], [ -89.201, 28.654 ], [ -89.201, 28.653 ], [ -89.203, 28.653 ], [ -89.203, 28.652 ], [ -89.205, 28.652 ], [ -89.205, 28.651 ], [ -89.207, 28.651 ], [ -89.207, 28.65 ], [ -89.209, 28.65 ], [ -89.209, 28.649 ], [ -89.211, 28.649 ], [ -89.211, 28.646 ], [ -89.209, 28.646 ], [ -89.209, 28.645 ], [ -89.205, 28.645 ], [ -89.205, 28.646 ], [ -89.203, 28.646 ], [ -89.203, 28.648 ], [ -89.201, 28.648 ], [ -89.201, 28.649 ], [ -89.2, 28.649 ], [ -89.2, 28.65 ], [ -89.198, 28.65 ], [ -89.198, 28.651 ], [ -89.196, 28.651 ], [ -89.196, 28.65 ], [ -89.194, 28.65 ], [ -89.194, 28.649 ], [ -89.193, 28.649 ], [ -89.193, 28.648 ], [ -89.192, 28.648 ], [ -89.192, 28.647 ], [ -89.191, 28.647 ], [ -89.191, 28.644 ], [ -89.192, 28.644 ], [ -89.192, 28.642 ], [ -89.193, 28.642 ], [ -89.193, 28.638 ], [ -89.191, 28.638 ], [ -89.191, 28.637 ], [ -89.19, 28.637 ], [ -89.19, 28.636 ], [ -89.189, 28.636 ], [ -89.189, 28.635 ], [ -89.188, 28.635 ], [ -89.188, 28.63 ], [ -89.186, 28.63 ], [ -89.186, 28.629 ], [ -89.184, 28.629 ], [ -89.184, 28.628 ], [ -89.183, 28.628 ], [ -89.183, 28.624 ], [ -89.181, 28.624 ], [ -89.181, 28.623 ], [ -89.179, 28.623 ], [ -89.179, 28.622 ], [ -89.178, 28.622 ], [ -89.178, 28.621 ], [ -89.177, 28.621 ], [ -89.177, 28.615 ], [ -89.176, 28.615 ], [ -89.176, 28.614 ], [ -89.174, 28.614 ], [ -89.174, 28.613 ], [ -89.173, 28.613 ], [ -89.173, 28.612 ], [ -89.172, 28.612 ], [ -89.172, 28.606 ], [ -89.171, 28.606 ], [ -89.171, 28.604 ], [ -89.17, 28.604 ], [ -89.17, 28.603 ], [ -89.169, 28.603 ], [ -89.169, 28.602 ], [ -89.168, 28.602 ], [ -89.168, 28.601 ], [ -89.167, 28.601 ], [ -89.167, 28.6 ], [ -89.166, 28.6 ], [ -89.166, 28.597 ], [ -89.167, 28.597 ], [ -89.167, 28.596 ], [ -89.169, 28.596 ], [ -89.169, 28.595 ], [ -89.173, 28.595 ], [ -89.173, 28.596 ], [ -89.177, 28.596 ], [ -89.177, 28.595 ], [ -89.179, 28.595 ], [ -89.179, 28.592 ], [ -89.177, 28.592 ], [ -89.177, 28.591 ], [ -89.173, 28.591 ], [ -89.173, 28.59 ], [ -89.171, 28.59 ], [ -89.171, 28.589 ], [ -89.169, 28.589 ], [ -89.169, 28.59 ], [ -89.167, 28.59 ], [ -89.167, 28.591 ], [ -89.165, 28.591 ], [ -89.165, 28.592 ], [ -89.164, 28.592 ], [ -89.164, 28.591 ], [ -89.162, 28.591 ], [ -89.162, 28.59 ], [ -89.161, 28.59 ], [ -89.161, 28.586 ], [ -89.162, 28.586 ], [ -89.162, 28.583 ], [ -89.161, 28.583 ], [ -89.161, 28.582 ], [ -89.159, 28.582 ], [ -89.159, 28.581 ], [ -89.157, 28.581 ], [ -89.157, 28.58 ], [ -89.156, 28.58 ], [ -89.156, 28.577 ], [ -89.154, 28.577 ], [ -89.154, 28.576 ], [ -89.152, 28.576 ], [ -89.152, 28.575 ], [ -89.151, 28.575 ], [ -89.151, 28.57 ], [ -89.15, 28.57 ], [ -89.15, 28.569 ], [ -89.149, 28.569 ], [ -89.149, 28.568 ], [ -89.148, 28.568 ], [ -89.148, 28.567 ], [ -89.146, 28.567 ], [ -89.146, 28.564 ], [ -89.145, 28.564 ], [ -89.145, 28.56 ], [ -89.143, 28.56 ], [ -89.143, 28.559 ], [ -89.142, 28.559 ], [ -89.142, 28.556 ], [ -89.14, 28.556 ], [ -89.14, 28.555 ], [ -89.139, 28.555 ], [ -89.139, 28.556 ], [ -89.136, 28.556 ], [ -89.136, 28.555 ], [ -89.134, 28.555 ], [ -89.134, 28.554 ], [ -89.131, 28.554 ], [ -89.131, 28.553 ], [ -89.128, 28.553 ], [ -89.128, 28.552 ], [ -89.126, 28.552 ], [ -89.126, 28.551 ], [ -89.125, 28.551 ], [ -89.125, 28.552 ], [ -89.123, 28.552 ], [ -89.123, 28.553 ], [ -89.121, 28.553 ], [ -89.121, 28.554 ], [ -89.12, 28.554 ], [ -89.12, 28.556 ], [ -89.119, 28.556 ], [ -89.119, 28.557 ], [ -89.118, 28.557 ], [ -89.118, 28.558 ], [ -89.117, 28.558 ], [ -89.117, 28.56 ], [ -89.116, 28.56 ], [ -89.116, 28.561 ], [ -89.114, 28.561 ], [ -89.114, 28.567 ], [ -89.113, 28.567 ], [ -89.113, 28.568 ], [ -89.112, 28.568 ], [ -89.112, 28.569 ], [ -89.111, 28.569 ], [ -89.111, 28.573 ], [ -89.112, 28.573 ], [ -89.112, 28.577 ], [ -89.113, 28.577 ], [ -89.113, 28.58 ], [ -89.115, 28.58 ], [ -89.115, 28.581 ], [ -89.116, 28.581 ], [ -89.116, 28.583 ], [ -89.117, 28.583 ], [ -89.117, 28.585 ], [ -89.118, 28.585 ], [ -89.118, 28.587 ], [ -89.119, 28.587 ], [ -89.119, 28.594 ], [ -89.12, 28.594 ], [ -89.12, 28.598 ], [ -89.122, 28.598 ], [ -89.122, 28.599 ], [ -89.124, 28.599 ], [ -89.124, 28.604 ], [ -89.125, 28.604 ], [ -89.125, 28.605 ], [ -89.127, 28.605 ], [ -89.127, 28.606 ], [ -89.129, 28.606 ], [ -89.129, 28.607 ], [ -89.131, 28.607 ], [ -89.131, 28.612 ], [ -89.132, 28.612 ], [ -89.132, 28.613 ], [ -89.133, 28.613 ], [ -89.133, 28.615 ], [ -89.135, 28.615 ], [ -89.135, 28.616 ], [ -89.136, 28.616 ], [ -89.136, 28.617 ], [ -89.137, 28.617 ], [ -89.137, 28.626 ], [ -89.138, 28.626 ], [ -89.138, 28.627 ], [ -89.139, 28.627 ], [ -89.139, 28.628 ], [ -89.14, 28.628 ], [ -89.14, 28.629 ], [ -89.141, 28.629 ], [ -89.141, 28.63 ], [ -89.142, 28.63 ], [ -89.142, 28.632 ], [ -89.143, 28.632 ], [ -89.143, 28.633 ], [ -89.144, 28.633 ], [ -89.144, 28.635 ], [ -89.146, 28.635 ], [ -89.146, 28.636 ], [ -89.147, 28.636 ], [ -89.147, 28.637 ], [ -89.148, 28.637 ], [ -89.148, 28.639 ], [ -89.149, 28.639 ], [ -89.149, 28.643 ], [ -89.15, 28.643 ], [ -89.15, 28.644 ], [ -89.151, 28.644 ], [ -89.151, 28.646 ], [ -89.152, 28.646 ], [ -89.152, 28.649 ], [ -89.153, 28.649 ], [ -89.153, 28.65 ], [ -89.154, 28.65 ], [ -89.154, 28.651 ], [ -89.155, 28.651 ], [ -89.155, 28.654 ], [ -89.156, 28.654 ], [ -89.156, 28.657 ], [ -89.157, 28.657 ], [ -89.157, 28.66 ], [ -89.156, 28.66 ], [ -89.156, 28.661 ], [ -89.155, 28.661 ], [ -89.155, 28.662 ], [ -89.154, 28.662 ], [ -89.154, 28.663 ], [ -89.153, 28.663 ], [ -89.153, 28.666 ], [ -89.155, 28.666 ], [ -89.155, 28.667 ], [ -89.158, 28.667 ], [ -89.158, 28.666 ], [ -89.161, 28.666 ], [ -89.161, 28.667 ], [ -89.163, 28.667 ], [ -89.163, 28.67 ], [ -89.164, 28.67 ], [ -89.164, 28.671 ], [ -89.165, 28.671 ], [ -89.165, 28.674 ], [ -89.166, 28.674 ], [ -89.166, 28.676 ], [ -89.167, 28.676 ], [ -89.167, 28.681 ], [ -89.169, 28.681 ], [ -89.169, 28.682 ], [ -89.17, 28.682 ], [ -89.17, 28.684 ], [ -89.171, 28.684 ], [ -89.171, 28.696 ], [ -89.173, 28.696 ], [ -89.173, 28.697 ], [ -89.175, 28.697 ], [ -89.175, 28.698 ], [ -89.176, 28.698 ], [ -89.176, 28.701 ], [ -89.175, 28.701 ], [ -89.175, 28.708 ], [ -89.176, 28.708 ], [ -89.176, 28.709 ], [ -89.177, 28.709 ], [ -89.177, 28.711 ], [ -89.178, 28.711 ], [ -89.178, 28.714 ], [ -89.18, 28.714 ], [ -89.18, 28.715 ], [ -89.182, 28.715 ], [ -89.182, 28.717 ], [ -89.183, 28.717 ], [ -89.183, 28.718 ], [ -89.184, 28.718 ], [ -89.184, 28.722 ], [ -89.185, 28.722 ], [ -89.185, 28.728 ], [ -89.187, 28.728 ], [ -89.187, 28.729 ], [ -89.188, 28.729 ], [ -89.188, 28.734 ], [ -89.187, 28.734 ], [ -89.187, 28.736 ], [ -89.186, 28.736 ], [ -89.186, 28.74 ], [ -89.185, 28.74 ], [ -89.185, 28.741 ], [ -89.183, 28.741 ], [ -89.183, 28.742 ], [ -89.181, 28.742 ], [ -89.181, 28.745 ], [ -89.183, 28.745 ], [ -89.183, 28.746 ], [ -89.184, 28.746 ], [ -89.184, 28.747 ], [ -89.186, 28.747 ], [ -89.186, 28.748 ], [ -89.188, 28.748 ], [ -89.188, 28.747 ], [ -89.191, 28.747 ], [ -89.191, 28.748 ], [ -89.193, 28.748 ], [ -89.193, 28.749 ], [ -89.195, 28.749 ], [ -89.195, 28.754 ], [ -89.196, 28.754 ], [ -89.196, 28.758 ], [ -89.198, 28.758 ], [ -89.198, 28.759 ], [ -89.201, 28.759 ], [ -89.201, 28.76 ], [ -89.203, 28.76 ], [ -89.203, 28.761 ], [ -89.204, 28.761 ], [ -89.204, 28.762 ], [ -89.205, 28.762 ], [ -89.205, 28.763 ], [ -89.206, 28.763 ], [ -89.206, 28.764 ], [ -89.207, 28.764 ], [ -89.207, 28.766 ], [ -89.209, 28.766 ], [ -89.209, 28.767 ], [ -89.21, 28.767 ], [ -89.21, 28.769 ], [ -89.211, 28.769 ], [ -89.211, 28.772 ], [ -89.212, 28.772 ], [ -89.212, 28.773 ], [ -89.213, 28.773 ], [ -89.213, 28.774 ], [ -89.214, 28.774 ], [ -89.214, 28.777 ], [ -89.216, 28.777 ], [ -89.216, 28.778 ], [ -89.218, 28.778 ], [ -89.218, 28.779 ], [ -89.22, 28.779 ], [ -89.22, 28.781 ], [ -89.221, 28.781 ], [ -89.221, 28.782 ], [ -89.222, 28.782 ], [ -89.222, 28.783 ], [ -89.223, 28.783 ], [ -89.223, 28.788 ], [ -89.225, 28.788 ], [ -89.225, 28.789 ], [ -89.226, 28.789 ], [ -89.226, 28.795 ], [ -89.227, 28.795 ], [ -89.227, 28.796 ], [ -89.229, 28.796 ], [ -89.229, 28.797 ], [ -89.23, 28.797 ], [ -89.23, 28.798 ], [ -89.231, 28.798 ], [ -89.231, 28.799 ], [ -89.232, 28.799 ], [ -89.232, 28.8 ], [ -89.233, 28.8 ], [ -89.233, 28.804 ], [ -89.234, 28.804 ], [ -89.234, 28.805 ], [ -89.235, 28.805 ], [ -89.235, 28.806 ], [ -89.237, 28.806 ], [ -89.237, 28.807 ], [ -89.239, 28.807 ], [ -89.239, 28.809 ], [ -89.24, 28.809 ], [ -89.24, 28.812 ], [ -89.242, 28.812 ], [ -89.242, 28.813 ], [ -89.244, 28.813 ], [ -89.244, 28.816 ], [ -89.242, 28.816 ], [ -89.242, 28.817 ], [ -89.241, 28.817 ], [ -89.241, 28.816 ], [ -89.24, 28.816 ], [ -89.24, 28.817 ], [ -89.238, 28.817 ], [ -89.238, 28.818 ], [ -89.236, 28.818 ], [ -89.236, 28.819 ], [ -89.234, 28.819 ], [ -89.234, 28.82 ], [ -89.232, 28.82 ], [ -89.232, 28.821 ], [ -89.231, 28.821 ], [ -89.231, 28.824 ], [ -89.23, 28.824 ], [ -89.23, 28.825 ], [ -89.229, 28.825 ], [ -89.229, 28.828 ], [ -89.231, 28.828 ], [ -89.231, 28.829 ], [ -89.233, 28.829 ], [ -89.233, 28.83 ], [ -89.235, 28.83 ], [ -89.235, 28.829 ], [ -89.237, 28.829 ], [ -89.237, 28.828 ], [ -89.238, 28.828 ], [ -89.238, 28.827 ], [ -89.239, 28.827 ], [ -89.239, 28.824 ], [ -89.241, 28.824 ], [ -89.241, 28.823 ], [ -89.243, 28.823 ], [ -89.243, 28.821 ], [ -89.245, 28.821 ], [ -89.245, 28.82 ], [ -89.246, 28.82 ], [ -89.246, 28.821 ], [ -89.248, 28.821 ], [ -89.248, 28.822 ], [ -89.249, 28.822 ], [ -89.249, 28.823 ], [ -89.25, 28.823 ], [ -89.25, 28.824 ], [ -89.251, 28.824 ], [ -89.251, 28.825 ], [ -89.252, 28.825 ], [ -89.252, 28.826 ], [ -89.253, 28.826 ], [ -89.253, 28.827 ], [ -89.254, 28.827 ], [ -89.254, 28.829 ], [ -89.255, 28.829 ], [ -89.255, 28.83 ], [ -89.256, 28.83 ], [ -89.256, 28.831 ], [ -89.257, 28.831 ], [ -89.257, 28.834 ], [ -89.258, 28.834 ], [ -89.258, 28.835 ], [ -89.26, 28.835 ], [ -89.26, 28.836 ], [ -89.263, 28.836 ], [ -89.263, 28.837 ], [ -89.265, 28.837 ], [ -89.265, 28.841 ], [ -89.266, 28.841 ], [ -89.266, 28.844 ], [ -89.267, 28.844 ], [ -89.267, 28.845 ], [ -89.269, 28.845 ], [ -89.269, 28.848 ], [ -89.268, 28.848 ], [ -89.268, 28.852 ], [ -89.27, 28.852 ], [ -89.27, 28.853 ], [ -89.271, 28.853 ], [ -89.271, 28.852 ], [ -89.273, 28.852 ], [ -89.273, 28.851 ], [ -89.275, 28.851 ], [ -89.275, 28.852 ], [ -89.277, 28.852 ], [ -89.277, 28.853 ], [ -89.278, 28.853 ], [ -89.278, 28.854 ], [ -89.28, 28.854 ], [ -89.28, 28.855 ], [ -89.283, 28.855 ], [ -89.283, 28.856 ], [ -89.285, 28.856 ], [ -89.285, 28.857 ], [ -89.287, 28.857 ], [ -89.287, 28.859 ], [ -89.288, 28.859 ], [ -89.288, 28.861 ], [ -89.29, 28.861 ], [ -89.29, 28.862 ], [ -89.292, 28.862 ], [ -89.292, 28.863 ], [ -89.294, 28.863 ], [ -89.294, 28.865 ], [ -89.295, 28.865 ], [ -89.295, 28.866 ], [ -89.296, 28.866 ], [ -89.296, 28.867 ], [ -89.297, 28.867 ], [ -89.297, 28.868 ], [ -89.298, 28.868 ], [ -89.298, 28.869 ], [ -89.299, 28.869 ], [ -89.299, 28.871 ], [ -89.301, 28.871 ], [ -89.301, 28.872 ], [ -89.303, 28.872 ], [ -89.303, 28.871 ], [ -89.305, 28.871 ], [ -89.305, 28.872 ], [ -89.307, 28.872 ], [ -89.307, 28.873 ], [ -89.308, 28.873 ], [ -89.308, 28.874 ], [ -89.31, 28.874 ], [ -89.31, 28.879 ], [ -89.312, 28.879 ], [ -89.312, 28.88 ], [ -89.315, 28.88 ], [ -89.315, 28.881 ], [ -89.317, 28.881 ], [ -89.317, 28.882 ], [ -89.318, 28.882 ], [ -89.318, 28.885 ], [ -89.32, 28.885 ], [ -89.32, 28.886 ], [ -89.324, 28.886 ], [ -89.324, 28.887 ], [ -89.326, 28.887 ], [ -89.326, 28.886 ], [ -89.33, 28.886 ], [ -89.33, 28.885 ], [ -89.335, 28.885 ], [ -89.335, 28.886 ], [ -89.337, 28.886 ], [ -89.337, 28.89 ], [ -89.339, 28.89 ], [ -89.339, 28.891 ], [ -89.341, 28.891 ] ] ] } }
]
}
